CCSDS_OMM_VERS = 2.0
CREATION_DATE  = 
ORIGINATOR     = 

OBJECT_NAME    = ATLAS CENTAUR 2
OBJECT_ID      = 1963-047A
CENTER_NAME    = EARTH
REF_FRAME      = TEME
TIME_SYSTEM    = UTC
MEAN_ELEMENT_THEORY = SGP/SGP4

EPOCH          = 2026-03-19T12:20:55.406688
MEAN_MOTION    = 14.12102360
ECCENTRICITY   = .05474665
INCLINATION    = 30.3528
RA_OF_ASC_NODE = 140.7335
ARG_OF_PERICENTER = 166.8733
MEAN_ANOMALY   = 194.6762

EPHEMERIS_TYPE = 0
CLASSIFICATION_TYPE = U
NORAD_CAT_ID   = 694
ELEMENT_SET_NO = 999
REV_AT_EPOCH   = 13301
BSTAR          = .18994317E-3
MEAN_MOTION_DOT = .1659E-4
MEAN_MOTION_DDOT = 0

CCSDS_OMM_VERS = 2.0
CREATION_DATE  = 
ORIGINATOR     = 

OBJECT_NAME    = THOR AGENA D R/B
OBJECT_ID      = 1964-002A
CENTER_NAME    = EARTH
REF_FRAME      = TEME
TIME_SYSTEM    = UTC
MEAN_ELEMENT_THEORY = SGP/SGP4

EPOCH          = 2026-03-19T22:02:28.599648
MEAN_MOTION    = 14.34025724
ECCENTRICITY   = .00321832
INCLINATION    = 99.1220
RA_OF_ASC_NODE = 92.8133
ARG_OF_PERICENTER = 227.5338
MEAN_ANOMALY   = 132.3124

EPHEMERIS_TYPE = 0
CLASSIFICATION_TYPE = U
NORAD_CAT_ID   = 733
ELEMENT_SET_NO = 999
REV_AT_EPOCH   = 23976
BSTAR          = .74193594E-4
MEAN_MOTION_DOT = .159E-5
MEAN_MOTION_DDOT = 0

CCSDS_OMM_VERS = 2.0
CREATION_DATE  = 
ORIGINATOR     = 

OBJECT_NAME    = SL-3 R/B
OBJECT_ID      = 1964-053B
CENTER_NAME    = EARTH
REF_FRAME      = TEME
TIME_SYSTEM    = UTC
MEAN_ELEMENT_THEORY = SGP/SGP4

EPOCH          = 2026-03-19T22:58:04.426752
MEAN_MOTION    = 14.61375235
ECCENTRICITY   = .0080115
INCLINATION    = 65.0767
RA_OF_ASC_NODE = 301.1358
ARG_OF_PERICENTER = 288.9870
MEAN_ANOMALY   = 70.2561

EPHEMERIS_TYPE = 0
CLASSIFICATION_TYPE = U
NORAD_CAT_ID   = 877
ELEMENT_SET_NO = 999
REV_AT_EPOCH   = 26829
BSTAR          = .46771979E-4
MEAN_MOTION_DOT = .116E-5
MEAN_MOTION_DDOT = 0

CCSDS_OMM_VERS = 2.0
CREATION_DATE  = 
ORIGINATOR     = 

OBJECT_NAME    = SL-8 R/B
OBJECT_ID      = 1967-045B
CENTER_NAME    = EARTH
REF_FRAME      = TEME
TIME_SYSTEM    = UTC
MEAN_ELEMENT_THEORY = SGP/SGP4

EPOCH          = 2026-03-19T22:55:37.720416
MEAN_MOTION    = 14.45631019
ECCENTRICITY   = .00646096
INCLINATION    = 74.0129
RA_OF_ASC_NODE = 328.9195
ARG_OF_PERICENTER = 332.8541
MEAN_ANOMALY   = 26.9242

EPHEMERIS_TYPE = 0
CLASSIFICATION_TYPE = U
NORAD_CAT_ID   = 2802
ELEMENT_SET_NO = 999
REV_AT_EPOCH   = 9050
BSTAR          = .8180388E-4
MEAN_MOTION_DOT = .268E-5
MEAN_MOTION_DDOT = 0

CCSDS_OMM_VERS = 2.0
CREATION_DATE  = 
ORIGINATOR     = 

OBJECT_NAME    = SL-8 R/B
OBJECT_ID      = 1968-040B
CENTER_NAME    = EARTH
REF_FRAME      = TEME
TIME_SYSTEM    = UTC
MEAN_ELEMENT_THEORY = SGP/SGP4

EPOCH          = 2026-03-19T22:59:52.750752
MEAN_MOTION    = 15.03321385
ECCENTRICITY   = .00234753
INCLINATION    = 74.0298
RA_OF_ASC_NODE = 292.7111
ARG_OF_PERICENTER = 112.5692
MEAN_ANOMALY   = 247.7984

EPHEMERIS_TYPE = 0
CLASSIFICATION_TYPE = U
NORAD_CAT_ID   = 3230
ELEMENT_SET_NO = 999
REV_AT_EPOCH   = 9155
BSTAR          = .17120379E-3
MEAN_MOTION_DOT = .2294E-4
MEAN_MOTION_DDOT = 0

CCSDS_OMM_VERS = 2.0
CREATION_DATE  = 
ORIGINATOR     = 

OBJECT_NAME    = OAO 2
OBJECT_ID      = 1968-110A
CENTER_NAME    = EARTH
REF_FRAME      = TEME
TIME_SYSTEM    = UTC
MEAN_ELEMENT_THEORY = SGP/SGP4

EPOCH          = 2026-03-19T17:12:50.855328
MEAN_MOTION    = 14.47313277
ECCENTRICITY   = .00062278
INCLINATION    = 34.9923
RA_OF_ASC_NODE = 209.2351
ARG_OF_PERICENTER = 278.0678
MEAN_ANOMALY   = 81.9307

EPHEMERIS_TYPE = 0
CLASSIFICATION_TYPE = U
NORAD_CAT_ID   = 3597
ELEMENT_SET_NO = 999
REV_AT_EPOCH   = 2055
BSTAR          = .58751725E-4
MEAN_MOTION_DOT = .199E-5
MEAN_MOTION_DDOT = 0

CCSDS_OMM_VERS = 2.0
CREATION_DATE  = 
ORIGINATOR     = 

OBJECT_NAME    = ISIS 1
OBJECT_ID      = 1969-009A
CENTER_NAME    = EARTH
REF_FRAME      = TEME
TIME_SYSTEM    = UTC
MEAN_ELEMENT_THEORY = SGP/SGP4

EPOCH          = 2026-03-19T17:17:46.817664
MEAN_MOTION    = 11.30416980
ECCENTRICITY   = .17078771
INCLINATION    = 88.4523
RA_OF_ASC_NODE = 154.2144
ARG_OF_PERICENTER = 68.9274
MEAN_ANOMALY   = 308.5480

EPHEMERIS_TYPE = 0
CLASSIFICATION_TYPE = U
NORAD_CAT_ID   = 3669
ELEMENT_SET_NO = 999
REV_AT_EPOCH   = 34966
BSTAR          = .74705312E-4
MEAN_MOTION_DOT = .127E-5
MEAN_MOTION_DDOT = 0

CCSDS_OMM_VERS = 2.0
CREATION_DATE  = 
ORIGINATOR     = 

OBJECT_NAME    = SERT 2
OBJECT_ID      = 1970-009A
CENTER_NAME    = EARTH
REF_FRAME      = TEME
TIME_SYSTEM    = UTC
MEAN_ELEMENT_THEORY = SGP/SGP4

EPOCH          = 2026-03-19T20:40:05.042208
MEAN_MOTION    = 13.58730754
ECCENTRICITY   = .00054186
INCLINATION    = 99.2773
RA_OF_ASC_NODE = 21.3988
ARG_OF_PERICENTER = 131.4291
MEAN_ANOMALY   = 293.6582

EPHEMERIS_TYPE = 0
CLASSIFICATION_TYPE = U
NORAD_CAT_ID   = 4327
ELEMENT_SET_NO = 999
REV_AT_EPOCH   = 78127
BSTAR          = .55187982E-4
MEAN_MOTION_DOT = -.1E-7
MEAN_MOTION_DDOT = 0

CCSDS_OMM_VERS = 2.0
CREATION_DATE  = 
ORIGINATOR     = 

OBJECT_NAME    = SL-3 R/B
OBJECT_ID      = 1971-028B
CENTER_NAME    = EARTH
REF_FRAME      = TEME
TIME_SYSTEM    = UTC
MEAN_ELEMENT_THEORY = SGP/SGP4

EPOCH          = 2026-03-19T21:48:42.841152
MEAN_MOTION    = 15.61981677
ECCENTRICITY   = .0013573
INCLINATION    = 81.2376
RA_OF_ASC_NODE = 39.3988
ARG_OF_PERICENTER = 240.9596
MEAN_ANOMALY   = 119.0298

EPHEMERIS_TYPE = 0
CLASSIFICATION_TYPE = U
NORAD_CAT_ID   = 5118
ELEMENT_SET_NO = 999
REV_AT_EPOCH   = 99026
BSTAR          = .41710119E-3
MEAN_MOTION_DOT = .36636E-3
MEAN_MOTION_DDOT = 0

CCSDS_OMM_VERS = 2.0
CREATION_DATE  = 
ORIGINATOR     = 

OBJECT_NAME    = ASTEX 1
OBJECT_ID      = 1971-089A
CENTER_NAME    = EARTH
REF_FRAME      = TEME
TIME_SYSTEM    = UTC
MEAN_ELEMENT_THEORY = SGP/SGP4

EPOCH          = 2026-03-19T18:06:23.774976
MEAN_MOTION    = 14.50779965
ECCENTRICITY   = .00173964
INCLINATION    = 92.7106
RA_OF_ASC_NODE = 155.0134
ARG_OF_PERICENTER = 56.0628
MEAN_ANOMALY   = 304.2229

EPHEMERIS_TYPE = 0
CLASSIFICATION_TYPE = U
NORAD_CAT_ID   = 5560
ELEMENT_SET_NO = 999
REV_AT_EPOCH   = 86376
BSTAR          = .98876746E-4
MEAN_MOTION_DOT = .389E-5
MEAN_MOTION_DDOT = 0

CCSDS_OMM_VERS = 2.0
CREATION_DATE  = 
ORIGINATOR     = 

OBJECT_NAME    = SL-8 R/B
OBJECT_ID      = 1971-119B
CENTER_NAME    = EARTH
REF_FRAME      = TEME
TIME_SYSTEM    = UTC
MEAN_ELEMENT_THEORY = SGP/SGP4

EPOCH          = 2026-03-19T11:12:35.834688
MEAN_MOTION    = 14.38070645
ECCENTRICITY   = .05474691
INCLINATION    = 73.8875
RA_OF_ASC_NODE = 157.4417
ARG_OF_PERICENTER = 122.0154
MEAN_ANOMALY   = 243.5410

EPHEMERIS_TYPE = 0
CLASSIFICATION_TYPE = U
NORAD_CAT_ID   = 5730
ELEMENT_SET_NO = 999
REV_AT_EPOCH   = 65689
BSTAR          = .35969486E-3
MEAN_MOTION_DOT = .6872E-4
MEAN_MOTION_DDOT = 0

CCSDS_OMM_VERS = 2.0
CREATION_DATE  = 
ORIGINATOR     = 

OBJECT_NAME    = OAO 3 (COPERNICUS)
OBJECT_ID      = 1972-065A
CENTER_NAME    = EARTH
REF_FRAME      = TEME
TIME_SYSTEM    = UTC
MEAN_ELEMENT_THEORY = SGP/SGP4

EPOCH          = 2026-03-19T17:05:26.475936
MEAN_MOTION    = 14.60005820
ECCENTRICITY   = .00072528
INCLINATION    = 35.0047
RA_OF_ASC_NODE = 240.2128
ARG_OF_PERICENTER = 245.8074
MEAN_ANOMALY   = 131.2427

EPHEMERIS_TYPE = 0
CLASSIFICATION_TYPE = U
NORAD_CAT_ID   = 6153
ELEMENT_SET_NO = 999
REV_AT_EPOCH   = 84766
BSTAR          = .64075088E-4
MEAN_MOTION_DOT = .291E-5
MEAN_MOTION_DDOT = 0

