ATLAS CENTAUR 2         
1 00694U 63047A   26078.51453017  .00001659  00000+0  18994-3 0  9992
2 00694  30.3528 140.7335 0547466 166.8733 194.6762 14.12102360133014
THOR AGENA D R/B        
1 00733U 64002A   26078.91838657  .00000159  00000+0  74194-4 0  9998
2 00733  99.1220  92.8133 0032183 227.5338 132.3124 14.34025724239766
SL-3 R/B                
1 00877U 64053B   26078.95699568  .00000116  00000+0  46772-4 0  9997
2 00877  65.0767 301.1358 0080115 288.9870  70.2561 14.61375235268298
SL-8 R/B                
1 02802U 67045B   26078.95529769  .00000268  00000+0  81804-4 0  9999
2 02802  74.0129 328.9195 0064609 332.8541  26.9242 14.45631019 90508
SL-8 R/B                
1 03230U 68040B   26078.95824943  .00002294  00000+0  17120-3 0  9993
2 03230  74.0298 292.7111 0023475 112.5692 247.7984 15.03321385 91552
OAO 2                   
1 03597U 68110A   26078.71725527  .00000199  00000+0  58752-4 0  9998
2 03597  34.9923 209.2351 0006227 278.0678  81.9307 14.47313277 20552
ISIS 1                  
1 03669U 69009A   26078.72068076  .00000127  00000+0  74705-4 0  9993
2 03669  88.4523 154.2144 1707877  68.9274 308.5480 11.30416980349669
SERT 2                  
1 04327U 70009A   26078.86116947 -.00000001  00000+0  55188-4 0  9999
2 04327  99.2773  21.3988 0005418 131.4291 293.6582 13.58730754781278
SL-3 R/B                
1 05118U 71028B   26078.90882918  .00036636  00000+0  41710-3 0  9990
2 05118  81.2376  39.3988 0013573 240.9596 119.0298 15.61981677990265
ASTEX 1                 
1 05560U 71089A   26078.75444184  .00000389  00000+0  98877-4 0  9993
2 05560  92.7106 155.0134 0017396  56.0628 304.2229 14.50779965863760
SL-8 R/B                
1 05730U 71119B   26078.46708142  .00006872  00000+0  35969-3 0  9996
2 05730  73.8875 157.4417 0547469 122.0154 243.5410 14.38070645656895
OAO 3 (COPERNICUS)      
1 06153U 72065A   26078.71211199  .00000291  00000+0  64075-4 0  9996
2 06153  35.0047 240.2128 0007252 245.8074 131.2427 14.60005820847668
